[
    {
        "Altitude(m)": 605470.754930125,
        "Argument of Periapsis(deg)": 0.0,
        "Eccentricity": 0.0,
        "Inclination(deg)": 60.0,
        "Latitude(deg)": 27.988092283590124,
        "Longitude(deg)": -152.7370067861681,
        "Mean Anomaly(deg)": 147.27269999999996,
        "RAAN(deg)": 145.0,
        "Satellite Name": "Test1 647",
        "Satellite Number": 647,
        "Semi-Major Axis(m)": 6980739.136638005,
        "Time(s)": 0
    },
    {
        "Altitude(m)": 605395.7930812485,
        "Argument of Periapsis(deg)": 0.00010418945913296404,
        "Eccentricity": 0.0,
        "Inclination(deg)": 60.0,
        "Latitude(deg)": 27.473782431299377,
        "Longitude(deg)": -152.38382036552517,
        "Mean Anomaly(deg)": 147.8928061454618,
        "RAAN(deg)": 144.99957995086027,
        "Satellite Name": "Test1 647",
        "Satellite Number": 647,
        "Semi-Major Axis(m)": 6980739.136638005,
        "Time(s)": 10
    },
    {
        "Altitude(m)": 605322.6339104646,
        "Argument of Periapsis(deg)": 0.0002083789182659281,
        "Eccentricity": 0.0,
        "Inclination(deg)": 60.0,
        "Latitude(deg)": 26.958326793379015,
        "Longitude(deg)": -152.03428212785914,
        "Mean Anomaly(deg)": 148.51291229092362,
        "RAAN(deg)": 144.99915990172053,
        "Satellite Name": "Test1 647",
        "Satellite Number": 647,
        "Semi-Major Axis(m)": 6980739.136638005,
        "Time(s)": 20
    },
    {
        "Altitude(m)": 605251.3330921612,
        "Argument of Periapsis(deg)": 0.00031256837739889213,
        "Eccentricity": 0.0,
        "Inclination(deg)": 60.0,
        "Latitude(deg)": 26.44175987195607,
        "Longitude(deg)": -151.6882874237908,
        "Mean Anomaly(deg)": 149.1330184363855,
        "RAAN(deg)": 144.99873985258077,
        "Satellite Name": "Test1 647",
        "Satellite Number": 647,
        "Semi-Major Axis(m)": 6980739.136638005,
        "Time(s)": 30
    },
    {
        "Altitude(m)": 605181.9455727896,
        "Argument of Periapsis(deg)": 0.0004167578365318562,
        "Eccentricity": 0.0,
        "Inclination(deg)": 60.0,
        "Latitude(deg)": 25.92411531486977,
        "Longitude(deg)": -151.34573333641526,
        "Mean Anomaly(deg)": 149.75312458184732,
        "RAAN(deg)": 144.99831980344103,
        "Satellite Name": "Test1 647",
        "Satellite Number": 647,
        "Semi-Major Axis(m)": 6980739.136638005,
        "Time(s)": 40
    },
    {
        "Altitude(m)": 605114.525541906,
        "Argument of Periapsis(deg)": 0.0005209472956648203,
        "Eccentricity": 0.0,
        "Inclination(deg)": 60.0,
        "Latitude(deg)": 25.405425948226995,
        "Longitude(deg)": -151.00651962517856,
        "Mean Anomaly(deg)": 150.37323072730916,
        "RAAN(deg)": 144.9978997543013,
        "Satellite Name": "Test1 647",
        "Satellite Number": 647,
        "Semi-Major Axis(m)": 6980739.136638005,
        "Time(s)": 50
    },
    {
        "Altitude(m)": 605049.1264035496,
        "Argument of Periapsis(deg)": 0.0006251367547977843,
        "Eccentricity": 0.0,
        "Inclination(deg)": 60.0,
        "Latitude(deg)": 24.885723807838822,
        "Longitude(deg)": -150.67054815768,
        "Mean Anomaly(deg)": 150.993336872771,
        "RAAN(deg)": 144.99747970516157,
        "Satellite Name": "Test1 647",
        "Satellite Number": 647,
        "Semi-Major Axis(m)": 6980739.136638005,
        "Time(s)": 60
    },
    {
        "Altitude(m)": 604985.8007479699,
        "Argument of Periapsis(deg)": 0.0007293262139307483,
        "Eccentricity": 0.0,
        "Inclination(deg)": 60.0,
        "Latitude(deg)": 24.365040169580148,
        "Longitude(deg)": -150.337722342332,
        "Mean Anomaly(deg)": 151.6134430182328,
        "RAAN(deg)": 144.9970596560218,
        "Satellite Name": "Test1 647",
        "Satellite Number": 647,
        "Semi-Major Axis(m)": 6980739.136638005,
        "Time(s)": 70
    },
    {
        "Altitude(m)": 604924.6003237107,
        "Argument of Periapsis(deg)": 0.0008335156730637124,
        "Eccentricity": 0.0,
        "Inclination(deg)": 60.0,
        "Latitude(deg)": 23.843405578712282,
        "Longitude(deg)": -150.00794807479716,
        "Mean Anomaly(deg)": 152.23354916369462,
        "RAAN(deg)": 144.99663960688207,
        "Satellite Name": "Test1 647",
        "Satellite Number": 647,
        "Semi-Major Axis(m)": 6980739.136638005,
        "Time(s)": 80
    },
    {
        "Altitude(m)": 604865.5760100449,
        "Argument of Periapsis(deg)": 0.0009377051321966765,
        "Eccentricity": 0.0,
        "Inclination(deg)": 60.0,
        "Latitude(deg)": 23.320849878202132,
        "Longitude(deg)": -149.68113317249896,
        "Mean Anomaly(deg)": 152.85365530915644,
        "RAAN(deg)": 144.99621955774234,
        "Satellite Name": "Test1 647",
        "Satellite Number": 647,
        "Semi-Major Axis(m)": 6980739.136638005,
        "Time(s)": 90
    },
    {
        "Altitude(m)": 604808.7777898342,
        "Argument of Periapsis(deg)": 0.0010418945913296407,
        "Eccentricity": 0.0,
        "Inclination(deg)": 60.0,
        "Latitude(deg)": 22.79740223607558,
        "Longitude(deg)": -149.35718681010675,
        "Mean Anomaly(deg)": 153.47376145461826,
        "RAAN(deg)": 144.9957995086026,
        "Satellite Name": "Test1 647",
        "Satellite Number": 647,
        "Semi-Major Axis(m)": 6980739.136638005,
        "Time(s)": 100
    },
    {
        "Altitude(m)": 604754.2547227347,
        "Argument of Periapsis(deg)": 0.0011460840504626045,
        "Eccentricity": 0.0,
        "Inclination(deg)": 60.0,
        "Latitude(deg)": 22.273091171845167,
        "Longitude(deg)": -149.03602046889543,
        "Mean Anomaly(deg)": 154.09386760008013,
        "RAAN(deg)": 144.99537945946284,
        "Satellite Name": "Test1 647",
        "Satellite Number": 647,
        "Semi-Major Axis(m)": 6980739.136638005,
        "Time(s)": 110
    },
    {
        "Altitude(m)": 604702.0549188785,
        "Argument of Periapsis(deg)": 0.0012502735095955685,
        "Eccentricity": 0.0,
        "Inclination(deg)": 60.0,
        "Latitude(deg)": 21.7479445820408,
        "Longitude(deg)": -148.71754737424897,
        "Mean Anomaly(deg)": 154.71397374554195,
        "RAAN(deg)": 144.9949594103231,
        "Satellite Name": "Test1 647",
        "Satellite Number": 647,
        "Semi-Major Axis(m)": 6980739.136638005,
        "Time(s)": 120
    },
    {
        "Altitude(m)": 604652.2255129361,
        "Argument of Periapsis(deg)": 0.0013544629687285324,
        "Eccentricity": 0.0,
        "Inclination(deg)": 60.0,
        "Latitude(deg)": 21.221989764880508,
        "Longitude(deg)": -148.40168193419376,
        "Mean Anomaly(deg)": 155.3340798910038,
        "RAAN(deg)": 144.99453936118337,
        "Satellite Name": "Test1 647",
        "Satellite Number": 647,
        "Semi-Major Axis(m)": 6980739.136638005,
        "Time(s)": 130
    },
    {
        "Altitude(m)": 604604.8126386399,
        "Argument of Periapsis(deg)": 0.0014586524278614966,
        "Eccentricity": 0.0,
        "Inclination(deg)": 60.0,
        "Latitude(deg)": 20.695253444118116,
        "Longitude(deg)": -148.08834069184098,
        "Mean Anomaly(deg)": 155.95418603646564,
        "RAAN(deg)": 144.99411931204364,
        "Satellite Name": "Test1 647",
        "Satellite Number": 647,
        "Semi-Major Axis(m)": 6980739.136638005,
        "Time(s)": 140
    },
    {
        "Altitude(m)": 604559.8614037728,
        "Argument of Periapsis(deg)": 0.0015628418869944607,
        "Eccentricity": 0.0,
        "Inclination(deg)": 60.0,
        "Latitude(deg)": 20.167761792093305,
        "Longitude(deg)": -147.77744176599302,
        "Mean Anomaly(deg)": 156.5742921819275,
        "RAAN(deg)": 144.99369926290387,
        "Satellite Name": "Test1 647",
        "Satellite Number": 647,
        "Semi-Major Axis(m)": 6980739.136638005,
        "Time(s)": 150
    },
    {
        "Altitude(m)": 604517.4158656115,
        "Argument of Periapsis(deg)": 0.0016670313461274247,
        "Eccentricity": 0.0,
        "Inclination(deg)": 60.0,
        "Latitude(deg)": 19.639540452020224,
        "Longitude(deg)": -147.4689042927858,
        "Mean Anomaly(deg)": 157.1943983273893,
        "RAAN(deg)": 144.99327921376414,
        "Satellite Name": "Test1 647",
        "Satellite Number": 647,
        "Semi-Major Axis(m)": 6980739.136638005,
        "Time(s)": 160
    },
    {
        "Altitude(m)": 604477.5190068652,
        "Argument of Periapsis(deg)": 0.0017712208052603888,
        "Eccentricity": 0.0,
        "Inclination(deg)": 60.0,
        "Latitude(deg)": 19.110614559546654,
        "Longitude(deg)": -147.1626493812326,
        "Mean Anomaly(deg)": 157.8145044728511,
        "RAAN(deg)": 144.9928591646244,
        "Satellite Name": "Test1 647",
        "Satellite Number": 647,
        "Semi-Major Axis(m)": 6980739.136638005,
        "Time(s)": 170
    },
    {
        "Altitude(m)": 604440.2127120884,
        "Argument of Periapsis(deg)": 0.001875410264393353,
        "Eccentricity": 0.0,
        "Inclination(deg)": 60.0,
        "Latitude(deg)": 18.581008763608867,
        "Longitude(deg)": -146.85859955691495,
        "Mean Anomaly(deg)": 158.43461061831295,
        "RAAN(deg)": 144.99243911548467,
        "Satellite Name": "Test1 647",
        "Satellite Number": 647,
        "Semi-Major Axis(m)": 6980739.136638005,
        "Time(s)": 180
    },
    {
        "Altitude(m)": 604405.5377446526,
        "Argument of Periapsis(deg)": 0.0019795997235263173,
        "Eccentricity": 0.0,
        "Inclination(deg)": 60.0,
        "Latitude(deg)": 18.05074724661407,
        "Longitude(deg)": -146.5566782066806,
        "Mean Anomaly(deg)": 159.05471676377473,
        "RAAN(deg)": 144.99201906634488,
        "Satellite Name": "Test1 647",
        "Satellite Number": 647,
        "Semi-Major Axis(m)": 6980739.136638005,
        "Time(s)": 190
    }
]